ORBCOMM FM103           
1 40091U 14040F   25105.07784479  .00001449  00000+0  34857-3 0  9999
2 40091  47.0065 315.8229 0001891 338.0998  21.9806 14.58045488571957
ORBCOMM FM114           
1 41179U 15081A   25105.03281122  .00001657  00000+0  39283-3 0  9995
2 41179  47.0019 225.1174 0001202  53.6479 306.4517 14.58104382495309
ORBCOMM FM119           
1 41180U 15081B   25105.49746699  .00001277  00000+0  31162-3 0  9998
2 41180  46.9989 132.2140 0000576 195.9250 164.1617 14.58020830496571
ORBCOMM FM105           
1 41181U 15081C   25105.10134153  .00000585  00000+0  21032-3 0  9999
2 41181  46.9999 132.9142 0001369   0.9647 359.1236 14.45155187491734
ORBCOMM FM110           
1 41182U 15081D   25104.73536575  .00002285  00000+0  52942-3 0  9995
2 41182  47.0008 225.8991 0002720 240.4889 119.5725 14.57961539495085
ORBCOMM FM118           
1 41183U 15081E   25105.47397111  .00002190  00000+0  50786-3 0  9998
2 41183  47.0033 222.8703 0003273 221.1503 138.9136 14.58065297495375
ORBCOMM FM112           
1 41184U 15081F   25105.19988638  .00001382  00000+0  33459-3 0  9998
2 41184  46.9977 132.7805 0000482  29.5392 330.5521 14.57972544496525
ORBCOMM FM113           
1 41185U 15081G   25104.76560253  .00001358  00000+0  32914-3 0  9998
2 41185  46.9993 135.1472 0000076  26.4806 333.6083 14.58009428496391
